start=new Date('2023-05-04T00:00:00.000Z').valueOf();
sats=[{"NORAD_CAT_ID":"56038","INCLINATION":"42.9995","ECCENTRICITY":"0.00014000","GP_ID":"231202344","FILE":"3900281","PERIOD":"92.247","MEAN_MOTION_DDOT":"0.0000000000000","DECAY_DATE":null,"EPOCH":"2023-05-03T22:00:00.999936","CLASSIFICATION_TYPE":"U","SITE":"AFETR","RCS_SIZE":"LARGE","PERIAPSIS":"383.765","TLE_LINE2":"2 56038  42.9995 311.4001 0001400 276.1749 284.2686 15.61019755  1303","SEMIMAJOR_AXIS":"6762.847","LAUNCH_DATE":"2023-03-24","REF_FRAME":"TEME","TLE_LINE1":"1 56038U 23042BE  23123.91667824 -.00860927  00000-0 -10898-1 0  9998","ARG_OF_PERICENTER":"276.1749","EPHEMERIS_TYPE":"0","MEAN_ANOMALY":"284.2686","COUNTRY_CODE":"US","TIME_SYSTEM":"UTC","OBJECT_NAME":"STARLINK-5793","OBJECT_ID":"2023-042BE","CENTER_NAME":"EARTH","MEAN_MOTION":"15.61019755","BSTAR":"-0.01089800000000","RA_OF_ASC_NODE":"311.4001","MEAN_ELEMENT_THEORY":"SGP4","REV_AT_EPOCH":"130","MEAN_MOTION_DOT":"-0.00860927","OBJECT_TYPE":"PAYLOAD","APOAPSIS":"385.659","ELEMENT_SET_NO":"999"},{"LAUNCH_DATE":"2023-03-24","SEMIMAJOR_AXIS":"6732.437","ARG_OF_PERICENTER":"278.8947","TLE_LINE1":"1 56039U 23042BF  23123.22787580  .00093838  00000-0  70334-3 0  9995","REF_FRAME":"TEME","COUNTRY_CODE":"US","MEAN_ANOMALY":"81.1565","EPHEMERIS_TYPE":"0","TIME_SYSTEM":"UTC","ECCENTRICITY":"0.00031430","INCLINATION":"42.9996","NORAD_CAT_ID":"56039","RCS_SIZE":"LARGE","SITE":"AFETR","EPOCH":"2023-05-03T05:28:08.469120","DECAY_DATE":null,"CLASSIFICATION_TYPE":"U","MEAN_MOTION_DDOT":"0.0000000000000","PERIOD":"91.626","GP_ID":"231169816","FILE":"3899966","PERIAPSIS":"352.186","TLE_LINE2":"2 56039  42.9996 315.3047 0003143 278.8947  81.1565 15.71608369  6247","MEAN_MOTION_DOT":"0.00093838","RA_OF_ASC_NODE":"315.3047","MEAN_ELEMENT_THEORY":"SGP4","REV_AT_EPOCH":"624","OBJECT_TYPE":"PAYLOAD","APOAPSIS":"356.418","ELEMENT_SET_NO":"999","OBJECT_ID":"2023-042BF","OBJECT_NAME":"STARLINK-5795","BSTAR":"0.00070334000000","MEAN_MOTION":"15.71608369","CENTER_NAME":"EARTH"},{"OBJECT_TYPE":"PAYLOAD","MEAN_ELEMENT_THEORY":"SGP4","REV_AT_EPOCH":"624","RA_OF_ASC_NODE":"315.3030","MEAN_MOTION_DOT":"0.00035245","ELEMENT_SET_NO":"999","APOAPSIS":"356.156","OBJECT_NAME":"STARLINK-5798","OBJECT_ID":"2023-042BG","CENTER_NAME":"EARTH","MEAN_MOTION":"15.71362505","BSTAR":"0.00027099000000","REF_FRAME":"TEME","TLE_LINE1":"1 56040U 23042BG  23123.22787749  .00035245  00000-0  27099-3 0  9992","ARG_OF_PERICENTER":"264.6405","SEMIMAJOR_AXIS":"6733.139","LAUNCH_DATE":"2023-03-24","TIME_SYSTEM":"UTC","MEAN_ANOMALY":"95.4267","EPHEMERIS_TYPE":"0","COUNTRY_CODE":"US","GP_ID":"231200845","FILE":"3900281","PERIOD":"91.640","MEAN_MOTION_DDOT":"0.0000000000000","DECAY_DATE":null,"EPOCH":"2023-05-03T05:28:08.615136","CLASSIFICATION_TYPE":"U","SITE":"AFETR","RCS_SIZE":"LARGE","NORAD_CAT_ID":"56040","INCLINATION":"42.9992","ECCENTRICITY":"0.00017110","TLE_LINE2":"2 56040  42.9992 315.3030 0001711 264.6405  95.4267 15.71362505  6244","PERIAPSIS":"353.852"},{"INCLINATION":"42.9988","NORAD_CAT_ID":"56041","ECCENTRICITY":"0.00015670","MEAN_MOTION_DDOT":"0.0000000000000","FILE":"3900281","GP_ID":"231202095","PERIOD":"91.640","SITE":"AFETR","RCS_SIZE":"LARGE","DECAY_DATE":null,"EPOCH":"2023-05-03T20:43:16.737024","CLASSIFICATION_TYPE":"U","PERIAPSIS":"353.955","TLE_LINE2":"2 56041  42.9988 311.4669 0001567 271.5376  88.5312 15.71360559  6340","SEMIMAJOR_AXIS":"6733.145","LAUNCH_DATE":"2023-03-24","REF_FRAME":"TEME","ARG_OF_PERICENTER":"271.5376","TLE_LINE1":"1 56041U 23042BH  23123.86338816  .00008692  00000-0  69641-4 0  9996","EPHEMERIS_TYPE":"0","MEAN_ANOMALY":"88.5312","COUNTRY_CODE":"US","TIME_SYSTEM":"UTC","OBJECT_NAME":"STARLINK-5800","OBJECT_ID":"2023-042BH","MEAN_MOTION":"15.71360559","CENTER_NAME":"EARTH","BSTAR":"0.00006964100000","MEAN_MOTION_DOT":"0.00008692","MEAN_ELEMENT_THEORY":"SGP4","RA_OF_ASC_NODE":"311.4669","REV_AT_EPOCH":"634","OBJECT_TYPE":"PAYLOAD","APOAPSIS":"356.065","ELEMENT_SET_NO":"999"},{"NORAD_CAT_ID":"56093","INCLINATION":"43.0008","ECCENTRICITY":"0.00012800","PERIOD":"93.908","GP_ID":"231201352","FILE":"3900281","MEAN_MOTION_DDOT":"0.0000000000000","EPOCH":"2023-05-03T22:00:00.999936","DECAY_DATE":null,"CLASSIFICATION_TYPE":"U","SITE":"AFETR","RCS_SIZE":"LARGE","PERIAPSIS":"464.759","TLE_LINE2":"2 56093  43.0008  56.9577 0001280 259.5020 351.2465 15.33414951  1309","SEMIMAJOR_AXIS":"6843.770","LAUNCH_DATE":"2023-03-29","REF_FRAME":"TEME","TLE_LINE1":"1 56093U 23046A   23123.91667824 -.00948559  00000-0 -31474-1 0  9994","ARG_OF_PERICENTER":"259.5020","MEAN_ANOMALY":"351.2465","EPHEMERIS_TYPE":"0","COUNTRY_CODE":"US","TIME_SYSTEM":"UTC","OBJECT_NAME":"STARLINK-6102","OBJECT_ID":"2023-046A","CENTER_NAME":"EARTH","MEAN_MOTION":"15.33414951","BSTAR":"-0.03147400000000","RA_OF_ASC_NODE":"56.9577","MEAN_ELEMENT_THEORY":"SGP4","REV_AT_EPOCH":"130","MEAN_MOTION_DOT":"-0.00948559","OBJECT_TYPE":"PAYLOAD","APOAPSIS":"466.511","ELEMENT_SET_NO":"999"},{"COUNTRY_CODE":"US","EPHEMERIS_TYPE":"0","MEAN_ANOMALY":"16.8323","TIME_SYSTEM":"UTC","LAUNCH_DATE":"2023-03-29","SEMIMAJOR_AXIS":"6841.775","TLE_LINE1":"1 56094U 23046B   23123.91667824 -.00949924  00000-0 -30855-1 0  9994","ARG_OF_PERICENTER":"256.5790","REF_FRAME":"TEME","PERIAPSIS":"462.720","TLE_LINE2":"2 56094  43.0007  56.9013 0001344 256.5790  16.8323 15.34085676  1302","ECCENTRICITY":"0.00013440","NORAD_CAT_ID":"56094","INCLINATION":"43.0007","CLASSIFICATION_TYPE":"U","DECAY_DATE":null,"EPOCH":"2023-05-03T22:00:00.999936","RCS_SIZE":"LARGE","SITE":"AFETR","GP_ID":"231202101","PERIOD":"93.867","FILE":"3900281","MEAN_MOTION_DDOT":"0.0000000000000","APOAPSIS":"464.559","ELEMENT_SET_NO":"999","MEAN_ELEMENT_THEORY":"SGP4","REV_AT_EPOCH":"130","RA_OF_ASC_NODE":"56.9013","MEAN_MOTION_DOT":"-0.00949924","OBJECT_TYPE":"PAYLOAD","BSTAR":"-0.03085500000000","CENTER_NAME":"EARTH","MEAN_MOTION":"15.34085676","OBJECT_ID":"2023-046B","OBJECT_NAME":"STARLINK-6109"},{"OBJECT_ID":"2023-046C","OBJECT_NAME":"STARLINK-6090","BSTAR":"-0.03122100000000","CENTER_NAME":"EARTH","MEAN_MOTION":"15.33647696","REV_AT_EPOCH":"130","MEAN_ELEMENT_THEORY":"SGP4","RA_OF_ASC_NODE":"56.9388","MEAN_MOTION_DOT":"-0.00947998","OBJECT_TYPE":"PAYLOAD","APOAPSIS":"465.826","ELEMENT_SET_NO":"999","ECCENTRICITY":"0.00012910","NORAD_CAT_ID":"56095","INCLINATION":"43.0009","DECAY_DATE":null,"CLASSIFICATION_TYPE":"U","EPOCH":"2023-05-03T22:00:00.999936","SITE":"AFETR","RCS_SIZE":"LARGE","GP_ID":"231201851","PERIOD":"93.894","FILE":"3900281","MEAN_MOTION_DDOT":"0.0000000000000","PERIAPSIS":"464.059","TLE_LINE2":"2 56095  43.0009  56.9388 0001291 258.2075   0.4690 15.33647696  1307","LAUNCH_DATE":"2023-03-29","SEMIMAJOR_AXIS":"6843.077","TLE_LINE1":"1 56095U 23046C   23123.91667824 -.00947998  00000-0 -31221-1 0  9992","ARG_OF_PERICENTER":"258.2075","REF_FRAME":"TEME","COUNTRY_CODE":"US","MEAN_ANOMALY":"0.4690","EPHEMERIS_TYPE":"0","TIME_SYSTEM":"UTC"},{"OBJECT_ID":"2023-046D","OBJECT_NAME":"STARLINK-6089","BSTAR":"-0.03071000000000","CENTER_NAME":"EARTH","MEAN_MOTION":"15.34229384","OBJECT_TYPE":"PAYLOAD","RA_OF_ASC_NODE":"56.8897","REV_AT_EPOCH":"130","MEAN_ELEMENT_THEORY":"SGP4","MEAN_MOTION_DOT":"-0.00949825","ELEMENT_SET_NO":"999","APOAPSIS":"464.120","CLASSIFICATION_TYPE":"U","DECAY_DATE":null,"EPOCH":"2023-05-03T22:00:00.999936","RCS_SIZE":"LARGE","SITE":"AFETR","GP_ID":"231201101","PERIOD":"93.858","FILE":"3900281","MEAN_MOTION_DDOT":"0.0000000000000","ECCENTRICITY":"0.00013270","NORAD_CAT_ID":"56096","INCLINATION":"43.0010","TLE_LINE2":"2 56096  43.0010  56.8897 0001327 261.1182  17.5057 15.34229384  1303","PERIAPSIS":"462.305","TLE_LINE1":"1 56096U 23046D   23123.91667824 -.00949825  00000-0 -30710-1 0  9996","ARG_OF_PERICENTER":"261.1182","REF_FRAME":"TEME","LAUNCH_DATE":"2023-03-29","SEMIMAJOR_AXIS":"6841.347","TIME_SYSTEM":"UTC","COUNTRY_CODE":"US","MEAN_ANOMALY":"17.5057","EPHEMERIS_TYPE":"0"},{"SITE":"AFETR","RCS_SIZE":"LARGE","CLASSIFICATION_TYPE":"U","DECAY_DATE":null,"EPOCH":"2023-05-03T20:33:49.821696","MEAN_MOTION_DDOT":"0.0000000000000","PERIOD":"91.640","GP_ID":"231173623","FILE":"3900168","ECCENTRICITY":"0.00016980","INCLINATION":"43.0006","NORAD_CAT_ID":"56097","TLE_LINE2":"2 56097  43.0006  51.7832 0001698 249.8313 110.2372 15.71371863  6062","PERIAPSIS":"353.834","ARG_OF_PERICENTER":"249.8313","TLE_LINE1":"1 56097U 23046E   23123.85682664  .00012723  00000-0  10025-3 0  9994","REF_FRAME":"TEME","LAUNCH_DATE":"2023-03-29","SEMIMAJOR_AXIS":"6733.112","TIME_SYSTEM":"UTC","COUNTRY_CODE":"US","EPHEMERIS_TYPE":"0","MEAN_ANOMALY":"110.2372","OBJECT_ID":"2023-046E","OBJECT_NAME":"STARLINK-6077","BSTAR":"0.00010025000000","MEAN_MOTION":"15.71371863","CENTER_NAME":"EARTH","OBJECT_TYPE":"PAYLOAD","MEAN_MOTION_DOT":"0.00012723","RA_OF_ASC_NODE":"51.7832","MEAN_ELEMENT_THEORY":"SGP4","REV_AT_EPOCH":"606","ELEMENT_SET_NO":"999","APOAPSIS":"356.121"},{"TLE_LINE2":"2 56098  43.0007  56.9207 0001343 254.9727  10.5859 15.33848345  1306","PERIAPSIS":"463.426","DECAY_DATE":null,"EPOCH":"2023-05-03T22:00:00.999936","CLASSIFICATION_TYPE":"U","RCS_SIZE":"LARGE","SITE":"AFETR","FILE":"3900281","GP_ID":"231201602","PERIOD":"93.882","MEAN_MOTION_DDOT":"0.0000000000000","ECCENTRICITY":"0.00013430","NORAD_CAT_ID":"56098","INCLINATION":"43.0007","TIME_SYSTEM":"UTC","COUNTRY_CODE":"US","MEAN_ANOMALY":"10.5859","EPHEMERIS_TYPE":"0","TLE_LINE1":"1 56098U 23046F   23123.91667824 -.00949726  00000-0 -31083-1 0  9992","ARG_OF_PERICENTER":"254.9727","REF_FRAME":"TEME","LAUNCH_DATE":"2023-03-29","SEMIMAJOR_AXIS":"6842.480","BSTAR":"-0.03108300000000","CENTER_NAME":"EARTH","MEAN_MOTION":"15.33848345","OBJECT_ID":"2023-046F","OBJECT_NAME":"STARLINK-6088","ELEMENT_SET_NO":"999","APOAPSIS":"465.264","OBJECT_TYPE":"PAYLOAD","RA_OF_ASC_NODE":"56.9207","MEAN_ELEMENT_THEORY":"SGP4","REV_AT_EPOCH":"130","MEAN_MOTION_DOT":"-0.00949726"}];
